[
  {
    "name": "KUIPER-00527",
    "noradId": "69269",
    "line1": "1 69269U 26118C   26187.88195143  .00021778  00000+0  65307-3 0  9991",
    "line2": "2 69269  51.8615 318.6336 0008606 260.1041  99.8973 15.34378674  7004"
  },
  {
    "name": "KUIPER-00562",
    "noradId": "69270",
    "line1": "1 69270U 26118D   26188.45183988  .00049205  00000+0  13004-2 0  9992",
    "line2": "2 69270  51.8720 314.9975 0000735 129.4709 230.6344 15.37938056  7101"
  },
  {
    "name": "KUIPER-00570",
    "noradId": "69271",
    "line1": "1 69271U 26118E   26188.75003471 -.01031525  00000+0 -57892-1 0  9995",
    "line2": "2 69271  51.8688 315.0744 0010035 269.2772 220.4594 15.15868143  5767"
  },
  {
    "name": "KUIPER-00572",
    "noradId": "69272",
    "line1": "1 69272U 26118F   26188.36268963  .00018127  00000+0  53849-3 0  9992",
    "line2": "2 69272  51.8687 315.8935 0006473 246.2188 113.8119 15.34815828  7082"
  },
  {
    "name": "KUIPER-00581",
    "noradId": "69273",
    "line1": "1 69273U 26118G   26188.75003471 -.01142445  00000+0 -61432-1 0  9996",
    "line2": "2 69273  51.8815 314.7346 0007399 267.4187  51.5877 15.17212832  4760"
  },
  {
    "name": "KUIPER-00584",
    "noradId": "69274",
    "line1": "1 69274U 26118H   26188.75003471 -.00034038  00000+0 -24238-2 0  9998",
    "line2": "2 69274  51.8829 316.1685 0011921 287.8462   3.6195 15.03991934  5737"
  },
  {
    "name": "KUIPER-00587",
    "noradId": "69275",
    "line1": "1 69275U 26118J   26188.36250257  .00021428  00000+0  59063-3 0  9994",
    "line2": "2 69275  51.8636 315.8716 0006491 263.1189  96.9059 15.37047654  7086"
  },
  {
    "name": "KUIPER-00590",
    "noradId": "69276",
    "line1": "1 69276U 26118K   26188.75003471  .00014439  00000+0  53053-3 0  9999",
    "line2": "2 69276  51.8749 313.8808 0000366 265.4441 162.1648 15.28142154  4036"
  },
  {
    "name": "KUIPER-00592",
    "noradId": "69277",
    "line1": "1 69277U 26118L   26188.75003471  .00033939  00000+0  12032-2 0  9997",
    "line2": "2 69277  51.8766 313.8776 0001782 165.4705 270.3505 15.28775516  3346"
  },
  {
    "name": "KUIPER-00593",
    "noradId": "69278",
    "line1": "1 69278U 26118M   26188.45703516  .00019965  00000+0  52362-3 0  9996",
    "line2": "2 69278  51.8710 315.0332 0002897 250.4454 109.6220 15.38647938  7161"
  },
  {
    "name": "KUIPER-00594",
    "noradId": "69279",
    "line1": "1 69279U 26118N   26188.45055993  .00017931  00000+0  49233-3 0  9990",
    "line2": "2 69279  51.8710 314.9916 0001495  58.0433 302.0699 15.37306049  7107"
  },
  {
    "name": "KUIPER-00595",
    "noradId": "69280",
    "line1": "1 69280U 26118P   26188.45328040  .00020726  00000+0  56703-3 0  9994",
    "line2": "2 69280  51.8724 315.0077 0000570 336.0575  24.0385 15.37317290  7139"
  },
  {
    "name": "KUIPER-00596",
    "noradId": "69281",
    "line1": "1 69281U 26118Q   26188.75003471  .00020470  00000+0  14588-2 0  9996",
    "line2": "2 69281  51.8797 316.0372 0012633 275.7997 100.2027 15.04490814  4932"
  },
  {
    "name": "KUIPER-00597",
    "noradId": "69282",
    "line1": "1 69282U 26118R   26187.83158416  .00025319  00000+0  68379-3 0  9990",
    "line2": "2 69282  51.8664 318.3228 0006153 252.7969 107.2344 15.37581303  7005"
  },
  {
    "name": "KUIPER-00599",
    "noradId": "69283",
    "line1": "1 69283U 26118S   26187.63038709  .00023134  00000+0  62109-3 0  9999",
    "line2": "2 69283  51.8705 319.2343 0005716 245.3779 114.6613 15.37820901  6977"
  },
  {
    "name": "KUIPER-00600",
    "noradId": "69284",
    "line1": "1 69284U 26118T   26188.36010925  .00018877  00000+0  51817-3 0  9993",
    "line2": "2 69284  51.8651 315.8602 0007875 257.4442 102.5664 15.37253852  7087"
  },
  {
    "name": "KUIPER-00601",
    "noradId": "69285",
    "line1": "1 69285U 26118U   26188.75003471 -.01286910  00000+0 -47820-1 0  9990",
    "line2": "2 69285  51.8759 313.9313 0003485 253.3840 136.4337 15.29931836  5363"
  },
  {
    "name": "KUIPER-00602",
    "noradId": "69286",
    "line1": "1 69286U 26118V   26188.38888626  .00023507  00000+0  61227-3 0  9990",
    "line2": "2 69286  51.8705 315.3268 0002110 244.5785 115.4984 15.38756102  7092"
  },
  {
    "name": "KUIPER-00603",
    "noradId": "69287",
    "line1": "1 69287U 26118W   26188.75003471  .00047930  00000+0  12616-2 0  9992",
    "line2": "2 69287  51.8679 313.7470 0004677 251.8910 223.9996 15.38065832  5832"
  },
  {
    "name": "KUIPER-00605",
    "noradId": "69288",
    "line1": "1 69288U 26118X   26188.75003471 -.01103669  00000+0 -59040-1 0  9999",
    "line2": "2 69288  51.8800 314.6907 0004370 266.1720 130.1532 15.17326527  2438"
  },
  {
    "name": "KUIPER-00606",
    "noradId": "69289",
    "line1": "1 69289U 26118Y   26188.46546587  .00025501  00000+0  67515-3 0  9991",
    "line2": "2 69289  51.8702 315.0880 0003230 249.7449 110.3191 15.38203141  7103"
  },
  {
    "name": "KUIPER-00607",
    "noradId": "69290",
    "line1": "1 69290U 26118Z   26187.62808184  .00020906  00000+0  56185-3 0  9999",
    "line2": "2 69290  51.8698 319.2181 0004889 247.3574 112.6896 15.37856801  6970"
  },
  {
    "name": "KUIPER-00608",
    "noradId": "69291",
    "line1": "1 69291U 26118AA  26188.46363332  .00013195  00000+0  40471-3 0  9997",
    "line2": "2 69291  51.8603 315.7796 0007588 271.9678  88.0438 15.34058525  7093"
  },
  {
    "name": "KUIPER-00610",
    "noradId": "69292",
    "line1": "1 69292U 26118AB  26188.45197988  .00025004  00000+0  65246-3 0  9998",
    "line2": "2 69292  51.8717 315.0009 0001757 242.3987 117.6822 15.38663833  7103"
  },
  {
    "name": "KUIPER-00613",
    "noradId": "69293",
    "line1": "1 69293U 26118AC  26188.75003471 -.02147267  00000+0 -10248+0 0  9993",
    "line2": "2 69293  51.8715 314.8583 0008823 259.2973  25.9565 15.22269563  4218"
  },
  {
    "name": "KUIPER-00618",
    "noradId": "69294",
    "line1": "1 69294U 26118AD  26188.39045779  .00020267  00000+0  55289-3 0  9995",
    "line2": "2 69294  51.8723 315.3348 0000522 193.1316 166.9658 15.37421266  7092"
  },
  {
    "name": "KUIPER-00620",
    "noradId": "69295",
    "line1": "1 69295U 26118AE  26188.45137687  .00017214  00000+0  45241-3 0  9998",
    "line2": "2 69295  51.8722 315.0001 0000894 198.8060 161.2894 15.38691783  7101"
  },
  {
    "name": "KUIPER-00423",
    "noradId": "69592",
    "line1": "1 69592U 26140A   26188.64777461  .00012529  00000+0  33379-3 0  9997",
    "line2": "2 69592  51.8807 299.6069 0013488 241.2423 118.7210 15.38474912  4384"
  },
  {
    "name": "KUIPER-00428",
    "noradId": "69593",
    "line1": "1 69593U 26140B   26188.74326223  .00021138  00000+0  58678-3 0  9990",
    "line2": "2 69593  51.8807 299.4916 0007897   5.0917 355.0148 15.36828451  4391"
  },
  {
    "name": "KUIPER-00481",
    "noradId": "69594",
    "line1": "1 69594U 26140C   26188.65600056  .00012193  00000+0  33216-3 0  9992",
    "line2": "2 69594  51.8783 299.6565 0011105 249.6761 110.3033 15.37840552  4388"
  },
  {
    "name": "KUIPER-00490",
    "noradId": "69595",
    "line1": "1 69595U 26140D   26188.66555503  .00018106  00000+0  48849-3 0  9998",
    "line2": "2 69595  51.8769 299.7147 0006267 311.9924  48.0529 15.37831000  4382"
  },
  {
    "name": "KUIPER-00493",
    "noradId": "69596",
    "line1": "1 69596U 26140E   26188.61712766  .00008791  00000+0  25298-3 0  9992",
    "line2": "2 69596  51.8803 300.1430 0007562  13.8269 346.2923 15.36544559  4372"
  },
  {
    "name": "KUIPER-00496",
    "noradId": "69597",
    "line1": "1 69597U 26140F   26188.63015212  .00014372  00000+0  43478-3 0  9999",
    "line2": "2 69597  51.8791 300.2219 0011575  12.3500 347.7767 15.34386043  4378"
  },
  {
    "name": "KUIPER-00513",
    "noradId": "69598",
    "line1": "1 69598U 26140G   26188.66325044  .00023317  00000+0  62141-3 0  9997",
    "line2": "2 69598  51.8797 299.7076 0007052 309.4277  50.6085 15.38036678  4388"
  },
  {
    "name": "KUIPER-00516",
    "noradId": "69599",
    "line1": "1 69599U 26140H   26188.66880373  .00010685  00000+0  29631-3 0  9990",
    "line2": "2 69599  51.8784 299.7379 0006640 327.3216  32.7359 15.37462649  4380"
  },
  {
    "name": "KUIPER-00517",
    "noradId": "69600",
    "line1": "1 69600U 26140J   26188.65130894  .00030016  00000+0  77831-3 0  9993",
    "line2": "2 69600  51.8768 299.6234 0010749 262.3420  97.6347 15.38705874  4382"
  },
  {
    "name": "KUIPER-00520",
    "noradId": "69601",
    "line1": "1 69601U 26140K   26188.66993500  .00010220  00000+0  28341-3 0  9993",
    "line2": "2 69601  51.8815 299.7542 0006367 328.7620  31.2988 15.37515622  4383"
  },
  {
    "name": "KUIPER-00522",
    "noradId": "69602",
    "line1": "1 69602U 26140L   26188.45238356  .00012639  00000+0  33628-3 0  9992",
    "line2": "2 69602  51.8789 300.5443 0013274 236.5674 123.4044 15.38509840  4355"
  },
  {
    "name": "KUIPER-00528",
    "noradId": "69603",
    "line1": "1 69603U 26140M   26188.47687105  .00015913  00000+0  43720-3 0  9997",
    "line2": "2 69603  51.8780 300.6994 0005345 334.1966  25.8753 15.37370231  4359"
  },
  {
    "name": "KUIPER-00532",
    "noradId": "69604",
    "line1": "1 69604U 26140N   26188.74411914  .00019565  00000+0  54736-3 0  9997",
    "line2": "2 69604  51.8789 299.4908 0005903   4.7270 355.3771 15.36648603  4392"
  },
  {
    "name": "KUIPER-00533",
    "noradId": "69605",
    "line1": "1 69605U 26140P   26188.65985291  .00012348  00000+0  33333-3 0  9994",
    "line2": "2 69605  51.8786 299.6805 0007756 298.5010  61.5196 15.38136241  4389"
  },
  {
    "name": "KUIPER-00534",
    "noradId": "69606",
    "line1": "1 69606U 26140Q   26188.64249356  .00012257  00000+0  32496-3 0  9997",
    "line2": "2 69606  51.8817 299.5735 0013598 238.1693 121.7971 15.38647665  4381"
  },
  {
    "name": "KUIPER-00537",
    "noradId": "69607",
    "line1": "1 69607U 26140R   26188.75003471  .00053654  00000+0  15875-2 0  9993",
    "line2": "2 69607  51.8813 299.6126 0010420  31.2655 291.3626 15.34329341  4064"
  }
]